CCSDS_OEM_VERS = 2.0
CREATION_DATE  = 2025-09-12T20:39:48.772
ORIGINATOR     = Python_HGV

META_START
OBJECT_NAME          = HGV_00004
OBJECT_ID            = 0000-000A
CENTER_NAME          = Earth
REF_FRAME            = ICRF
TIME_SYSTEM          = UTC
INTERPOLATION        = LAGRANGE
INTERPOLATION_DEGREE = 5
START_TIME           = 2025-07-22T00:00:00.000
STOP_TIME            = 2025-07-22T00:24:20.000
META_STOP

2025-07-22T00:04:24.000  2.407490e+03  4.083185e+03  4.369267e+03 -8.197668e-01 -1.845202e+00  2.534632e+00
2025-07-22T00:04:25.000  2.406669e+03  4.081337e+03  4.371799e+03 -8.234896e-01 -1.850883e+00  2.528370e+00
2025-07-22T00:04:26.000  2.405843e+03  4.079483e+03  4.374324e+03 -8.272115e-01 -1.856562e+00  2.522106e+00
2025-07-22T00:04:27.000  2.405014e+03  4.077624e+03  4.376843e+03 -8.309322e-01 -1.862239e+00  2.515838e+00
2025-07-22T00:04:28.000  2.404181e+03  4.075759e+03  4.379356e+03 -8.346520e-01 -1.867913e+00  2.509568e+00
2025-07-22T00:04:29.000  2.403345e+03  4.073888e+03  4.381862e+03 -8.383707e-01 -1.873584e+00  2.503296e+00
2025-07-22T00:04:30.000  2.402505e+03  4.072012e+03  4.384362e+03 -8.420884e-01 -1.879253e+00  2.497021e+00
2025-07-22T00:04:31.000  2.401661e+03  4.070130e+03  4.386856e+03 -8.458050e-01 -1.884920e+00  2.490743e+00
2025-07-22T00:04:32.000  2.400813e+03  4.068242e+03  4.389344e+03 -8.495206e-01 -1.890584e+00  2.484463e+00
2025-07-22T00:04:33.000  2.399962e+03  4.066349e+03  4.391825e+03 -8.532351e-01 -1.896246e+00  2.478180e+00
2025-07-22T00:04:34.000  2.399107e+03  4.064449e+03  4.394300e+03 -8.569486e-01 -1.901905e+00  2.471894e+00
2025-07-22T00:04:35.000  2.398248e+03  4.062545e+03  4.396769e+03 -8.606611e-01 -1.907561e+00  2.465606e+00
2025-07-22T00:04:36.000  2.397385e+03  4.060634e+03  4.399231e+03 -8.643725e-01 -1.913215e+00  2.459315e+00
2025-07-22T00:04:37.000  2.396519e+03  4.058718e+03  4.401688e+03 -8.680828e-01 -1.918867e+00  2.453021e+00
2025-07-22T00:04:38.000  2.395649e+03  4.056797e+03  4.404137e+03 -8.717922e-01 -1.924516e+00  2.446724e+00
2025-07-22T00:04:39.000  2.394775e+03  4.054869e+03  4.406581e+03 -8.755004e-01 -1.930162e+00  2.440425e+00
2025-07-22T00:04:40.000  2.393898e+03  4.052936e+03  4.409018e+03 -8.792077e-01 -1.935806e+00  2.434123e+00
2025-07-22T00:04:41.000  2.393017e+03  4.050998e+03  4.411449e+03 -8.829139e-01 -1.941448e+00  2.427819e+00
2025-07-22T00:04:42.000  2.392132e+03  4.049053e+03  4.413874e+03 -8.866191e-01 -1.947087e+00  2.421511e+00
2025-07-22T00:04:43.000  2.391244e+03  4.047103e+03  4.416292e+03 -8.903233e-01 -1.952724e+00  2.415201e+00
2025-07-22T00:04:44.000  2.390352e+03  4.045148e+03  4.418704e+03 -8.940265e-01 -1.958358e+00  2.408888e+00
2025-07-22T00:04:45.000  2.389456e+03  4.043187e+03  4.421110e+03 -8.977286e-01 -1.963990e+00  2.402572e+00
2025-07-22T00:04:46.000  2.388556e+03  4.041220e+03  4.423509e+03 -9.014298e-01 -1.969619e+00  2.396254e+00
2025-07-22T00:04:47.000  2.387653e+03  4.039248e+03  4.425903e+03 -9.051299e-01 -1.975246e+00  2.389932e+00
2025-07-22T00:04:48.000  2.386746e+03  4.037269e+03  4.428289e+03 -9.088290e-01 -1.980870e+00  2.383608e+00
2025-07-22T00:04:49.000  2.385835e+03  4.035286e+03  4.430670e+03 -9.125271e-01 -1.986492e+00  2.377281e+00
2025-07-22T00:04:50.000  2.384921e+03  4.033296e+03  4.433044e+03 -9.162243e-01 -1.992112e+00  2.370952e+00
2025-07-22T00:04:51.000  2.384003e+03  4.031302e+03  4.435412e+03 -9.199204e-01 -1.997729e+00  2.364619e+00
2025-07-22T00:04:52.000  2.383081e+03  4.029301e+03  4.437773e+03 -9.236155e-01 -2.003343e+00  2.358283e+00
2025-07-22T00:04:53.000  2.382156e+03  4.027295e+03  4.440128e+03 -9.273097e-01 -2.008956e+00  2.351945e+00
2025-07-22T00:04:54.000  2.381226e+03  4.025283e+03  4.442477e+03 -9.310029e-01 -2.014566e+00  2.345604e+00
2025-07-22T00:04:55.000  2.380294e+03  4.023266e+03  4.444819e+03 -9.346951e-01 -2.020173e+00  2.339259e+00
2025-07-22T00:04:56.000  2.379357e+03  4.021243e+03  4.447156e+03 -9.383863e-01 -2.025778e+00  2.332912e+00
2025-07-22T00:04:57.000  2.378417e+03  4.019214e+03  4.449485e+03 -9.420766e-01 -2.031381e+00  2.326562e+00
2025-07-22T00:04:58.000  2.377473e+03  4.017180e+03  4.451809e+03 -9.457659e-01 -2.036981e+00  2.320209e+00
2025-07-22T00:04:59.000  2.376525e+03  4.015140e+03  4.454126e+03 -9.494543e-01 -2.042579e+00  2.313853e+00
2025-07-22T00:05:00.000  2.375574e+03  4.013095e+03  4.456436e+03 -9.531417e-01 -2.048174e+00  2.307494e+00
2025-07-22T00:05:01.000  2.374619e+03  4.011044e+03  4.458741e+03 -9.568282e-01 -2.053768e+00  2.301132e+00
2025-07-22T00:05:02.000  2.373660e+03  4.008987e+03  4.461039e+03 -9.605137e-01 -2.059358e+00  2.294768e+00
2025-07-22T00:05:03.000  2.372698e+03  4.006925e+03  4.463330e+03 -9.641983e-01 -2.064947e+00  2.288400e+00
2025-07-22T00:05:04.000  2.371732e+03  4.004857e+03  4.465615e+03 -9.678820e-01 -2.070533e+00  2.282029e+00
2025-07-22T00:05:05.000  2.370762e+03  4.002784e+03  4.467894e+03 -9.715647e-01 -2.076117e+00  2.275655e+00
2025-07-22T00:05:06.000  2.369789e+03  4.000705e+03  4.470167e+03 -9.752465e-01 -2.081698e+00  2.269278e+00
2025-07-22T00:05:07.000  2.368812e+03  3.998621e+03  4.472433e+03 -9.789274e-01 -2.087278e+00  2.262898e+00
2025-07-22T00:05:08.000  2.367831e+03  3.996531e+03  4.474693e+03 -9.826074e-01 -2.092854e+00  2.256515e+00
2025-07-22T00:05:09.000  2.366846e+03  3.994435e+03  4.476946e+03 -9.862864e-01 -2.098429e+00  2.250129e+00
2025-07-22T00:05:10.000  2.365858e+03  3.992334e+03  4.479193e+03 -9.899646e-01 -2.104001e+00  2.243740e+00
2025-07-22T00:05:11.000  2.364867e+03  3.990227e+03  4.481433e+03 -9.936418e-01 -2.109571e+00  2.237347e+00
2025-07-22T00:05:12.000  2.363871e+03  3.988115e+03  4.483667e+03 -9.973182e-01 -2.115139e+00  2.230952e+00
2025-07-22T00:05:13.000  2.362872e+03  3.985997e+03  4.485895e+03 -1.000994e+00 -2.120704e+00  2.224553e+00
2025-07-22T00:05:14.000  2.361869e+03  3.983873e+03  4.488117e+03 -1.004668e+00 -2.126267e+00  2.218152e+00
2025-07-22T00:05:15.000  2.360863e+03  3.981744e+03  4.490332e+03 -1.008342e+00 -2.131828e+00  2.211747e+00
2025-07-22T00:05:16.000  2.359852e+03  3.979610e+03  4.492540e+03 -1.012015e+00 -2.137386e+00  2.205339e+00
2025-07-22T00:05:17.000  2.358839e+03  3.977469e+03  4.494742e+03 -1.015686e+00 -2.142943e+00  2.198928e+00
2025-07-22T00:05:18.000  2.357821e+03  3.975324e+03  4.496938e+03 -1.019357e+00 -2.148497e+00  2.192514e+00
2025-07-22T00:05:19.000  2.356800e+03  3.973172e+03  4.499127e+03 -1.023028e+00 -2.154048e+00  2.186097e+00
2025-07-22T00:05:20.000  2.355775e+03  3.971016e+03  4.501310e+03 -1.026697e+00 -2.159598e+00  2.179676e+00
2025-07-22T00:05:21.000  2.354746e+03  3.968853e+03  4.503487e+03 -1.030365e+00 -2.165145e+00  2.173252e+00
2025-07-22T00:05:22.000  2.353714e+03  3.966685e+03  4.505657e+03 -1.034033e+00 -2.170690e+00  2.166826e+00
2025-07-22T00:05:23.000  2.352678e+03  3.964512e+03  4.507820e+03 -1.037699e+00 -2.176232e+00  2.160395e+00
2025-07-22T00:05:24.000  2.351639e+03  3.962333e+03  4.509977e+03 -1.041365e+00 -2.181773e+00  2.153962e+00
2025-07-22T00:05:25.000  2.350596e+03  3.960148e+03  4.512128e+03 -1.045030e+00 -2.187311e+00  2.147526e+00
2025-07-22T00:05:26.000  2.349549e+03  3.957958e+03  4.514272e+03 -1.048693e+00 -2.192846e+00  2.141086e+00
2025-07-22T00:05:27.000  2.348498e+03  3.955763e+03  4.516410e+03 -1.052356e+00 -2.198380e+00  2.134643e+00
2025-07-22T00:05:28.000  2.347444e+03  3.953561e+03  4.518542e+03 -1.056019e+00 -2.203911e+00  2.128197e+00
2025-07-22T00:05:29.000  2.346386e+03  3.951355e+03  4.520667e+03 -1.059680e+00 -2.209440e+00  2.121748e+00
2025-07-22T00:05:30.000  2.345325e+03  3.949143e+03  4.522785e+03 -1.063340e+00 -2.214966e+00  2.115296e+00
2025-07-22T00:05:31.000  2.344259e+03  3.946925e+03  4.524897e+03 -1.066999e+00 -2.220490e+00  2.108840e+00
2025-07-22T00:05:32.000  2.343191e+03  3.944702e+03  4.527003e+03 -1.070658e+00 -2.226012e+00  2.102381e+00
2025-07-22T00:05:33.000  2.342118e+03  3.942473e+03  4.529102e+03 -1.074315e+00 -2.231532e+00  2.095919e+00
2025-07-22T00:05:34.000  2.341042e+03  3.940239e+03  4.531195e+03 -1.077972e+00 -2.237049e+00  2.089454e+00
2025-07-22T00:05:35.000  2.339962e+03  3.937999e+03  4.533281e+03 -1.081628e+00 -2.242563e+00  2.082985e+00
2025-07-22T00:05:36.000  2.338879e+03  3.935753e+03  4.535361e+03 -1.085282e+00 -2.248076e+00  2.076514e+00
2025-07-22T00:05:37.000  2.337792e+03  3.933503e+03  4.537434e+03 -1.088936e+00 -2.253585e+00  2.070039e+00
2025-07-22T00:05:38.000  2.336701e+03  3.931246e+03  4.539501e+03 -1.092589e+00 -2.259093e+00  2.063562e+00
2025-07-22T00:05:39.000  2.335606e+03  3.928984e+03  4.541561e+03 -1.096240e+00 -2.264597e+00  2.057081e+00
2025-07-22T00:05:40.000  2.334508e+03  3.926717e+03  4.543615e+03 -1.099891e+00 -2.270100e+00  2.050597e+00
2025-07-22T00:05:41.000  2.333407e+03  3.924444e+03  4.545662e+03 -1.103541e+00 -2.275599e+00  2.044110e+00
2025-07-22T00:05:42.000  2.332301e+03  3.922166e+03  4.547703e+03 -1.107189e+00 -2.281096e+00  2.037620e+00
2025-07-22T00:05:43.000  2.331192e+03  3.919882e+03  4.549738e+03 -1.110837e+00 -2.286591e+00  2.031127e+00
2025-07-22T00:05:44.000  2.330080e+03  3.917593e+03  4.551765e+03 -1.114483e+00 -2.292082e+00  2.024631e+00
2025-07-22T00:05:45.000  2.328963e+03  3.915298e+03  4.553787e+03 -1.118128e+00 -2.297571e+00  2.018132e+00
2025-07-22T00:05:46.000  2.327843e+03  3.912998e+03  4.555802e+03 -1.121772e+00 -2.303057e+00  2.011631e+00
2025-07-22T00:05:47.000  2.326720e+03  3.910692e+03  4.557810e+03 -1.125414e+00 -2.308539e+00  2.005126e+00
2025-07-22T00:05:48.000  2.325593e+03  3.908380e+03  4.559812e+03 -1.129056e+00 -2.314019e+00  1.998619e+00
2025-07-22T00:05:49.000  2.324462e+03  3.906064e+03  4.561807e+03 -1.132696e+00 -2.319496e+00  1.992110e+00
2025-07-22T00:05:50.000  2.323327e+03  3.903741e+03  4.563796e+03 -1.136334e+00 -2.324969e+00  1.985597e+00
2025-07-22T00:05:51.000  2.322189e+03  3.901414e+03  4.565779e+03 -1.139971e+00 -2.330439e+00  1.979083e+00
